GLOBALSTAR M023         
1 25621U 99004A   24211.56939804 -.00000076  00000+0  15445-3 0  9997
2 25621  52.0123 315.7983 0010731 134.2753 238.9635 12.62464331174981
GLOBALSTAR M040         
1 25622U 99004B   24211.76798147 -.00000069  00000+0  19510-3 0  9992
2 25622  51.9937 318.8692 0001206  82.3373  77.5694 12.61977837174848
GLOBALSTAR M036         
1 25623U 99004C   24211.49743722 -.00000034  00000+0  71608-3 0  9990
2 25623  51.9992  10.8426 0011569 147.8320 278.0695 11.86572201140671
GLOBALSTAR M038         
1 25624U 99004D   24211.75823354 -.00000059  00000+0  29580-3 0  9999
2 25624  51.9972 280.1166 0002216 110.8467  44.8403 12.32503912162578
GLOBALSTAR M022         
1 25649U 99012A   24211.89651660 -.00000063  00000+0  28994-3 0  9992
2 25649  52.0046  87.0252 0001730 256.3370 189.4459 12.02485515137684
GLOBALSTAR M041         
1 25650U 99012B   24211.55097423 -.00000031  00000+0  70525-3 0  9990
2 25650  52.0041 319.5797 0002894  60.4880 299.6244 11.96656753139651
GLOBALSTAR M046         
1 25651U 99012C   24211.59992260  .00000003  00000+0  10152-2 0  9995
2 25651  52.0063  49.7401 0002154 351.8735  42.3960 12.09392733144637
GLOBALSTAR M037         
1 25652U 99012D   24211.61341426 -.00000078  00000+0  14441-3 0  9990
2 25652  52.0006  86.4000 0001491 169.4225 207.4886 12.62413022170531
